{
    "CCSDS_OMM_VERS": "3.0",
    "COMMENT": "GENERATED VIA SPACE-TRACK.ORG API",
    "CREATION_DATE": "2025-05-23T06:46:19",
    "ORIGINATOR": "18 SPCS",
    "OBJECT_NAME": "NAVSTAR 75 (USA 265)",
    "OBJECT_ID": "2015-062A",
    "CENTER_NAME": "EARTH",
    "REF_FRAME": "TEME",
    "TIME_SYSTEM": "UTC",
    "MEAN_ELEMENT_THEORY": "SGP4",
    "EPOCH": "2025-05-22T21:25:32.194272",
    "MEAN_MOTION": "2.00566725",
    "ECCENTRICITY": "0.01029430",
    "INCLINATION": "56.6794",
    "RA_OF_ASC_NODE": "45.8867",
    "ARG_OF_PERICENTER": "228.4385",
    "MEAN_ANOMALY": "130.6967",
    "EPHEMERIS_TYPE": "0",
    "CLASSIFICATION_TYPE": "U",
    "NORAD_CAT_ID": "41019",
    "ELEMENT_SET_NO": "999",
    "REV_AT_EPOCH": "7000",
    "BSTAR": "0.00000000000000",
    "MEAN_MOTION_DOT": "-0.00000069",
    "MEAN_MOTION_DDOT": "0.0000000000000",
    "SEMIMAJOR_AXIS": "26560.072",
    "PERIOD": "717.966",
    "APOAPSIS": "20455.355",
    "PERIAPSIS": "19908.520",
    "OBJECT_TYPE": "PAYLOAD",
    "RCS_SIZE": "LARGE",
    "COUNTRY_CODE": "US",
    "LAUNCH_DATE": "2015-10-31",
    "SITE": "AFETR",
    "DECAY_DATE": null,
    "FILE": "4736690",
    "GP_ID": "288169280",
    "TLE_LINE0": "0 NAVSTAR 75 (USA 265)",
    "TLE_LINE1": "1 41019U 15062A   25142.89273373 -.00000069  00000-0  00000+0 0  9990",
    "TLE_LINE2": "2 41019  56.6794  45.8867 0102943 228.4385 130.6967  2.00566725 70005"
}